{"RECORDS":[{"CCSDS_OMM_VERS":1362.9,"CREATION_DATE":"1990-12-15T12:12:56.723Z","ORIGINATOR":"Heidenreich, Schmidt and Ernser","OBJECT_NAME":"K1CS:2w/fM","OBJECT_ID":"No*98Q9^8G","CENTER_NAME":"AbP`*3ovwT","REF_FRAME":0,"REF_FRAME_EPOCH":"2070-04-03T22:50:11.365Z","TIME_SYSTEM":0,"MEAN_ELEMENT_THEORY":2,"COMMENT":",l}+%Ue\\C}","EPOCH":"2041-09-10T01:36:10.336Z","SEMI_MAJOR_AXIS":17185.88,"MEAN_MOTION":95875.48,"ECCENTRICITY":83451.15,"INCLINATION":90582.68,"RA_OF_ASC_NODE":54356.6,"ARG_OF_PERICENTER":76263.1,"MEAN_ANOMALY":42489.36,"GM":59922.32,"MASS":26469.24,"SOLAR_RAD_AREA":72541.77,"SOLAR_RAD_COEFF":71141.97,"DRAG_AREA":90079.4,"DRAG_COEFF":50492.39,"EPHEMERIS_TYPE":0,"CLASSIFICATION_TYPE":"0ICe=Gai0P","NORAD_CAT_ID":719673597,"ELEMENT_SET_NO":3962227406,"REV_AT_EPOCH":76107.49,"BSTAR":95070.81,"MEAN_MOTION_DOT":71093.36,"MEAN_MOTION_DDOT":24564.1,"COV_REF_FRAME":1,"CX_X":24198.69,"CY_X":62624.3,"CY_Y":7183.17,"CZ_X":87862.78,"CZ_Y":20257.3,"CZ_Z":34193.3,"CX_DOT_X":8350.25,"CX_DOT_Y":83045.7,"CX_DOT_Z":62985.62,"CX_DOT_X_DOT":68183.29,"CY_DOT_X":30840,"CY_DOT_Y":62647.82,"CY_DOT_Z":34037.44,"CY_DOT_X_DOT":49041.36,"CY_DOT_Y_DOT":77926.43,"CZ_DOT_X":93978.16,"CZ_DOT_Y":4297.09,"CZ_DOT_Z":12661.52,"CZ_DOT_X_DOT":62919.78,"CZ_DOT_Y_DOT":47487.08,"CZ_DOT_Z_DOT":2336.96,"USER_DEFINED_BIP_0044_TYPE":4284961954,"USER_DEFINED_OBJECT_DESIGNATOR":"[f0%2ICI5?","USER_DEFINED_EARTH_MODEL":"\\z,ER}0H&V","USER_DEFINED_EPOCH_TIMESTAMP":6688.33,"USER_DEFINED_MICROSECONDS":2106.16},{"CCSDS_OMM_VERS":34753.76,"CREATION_DATE":"2079-10-20T00:39:43.116Z","ORIGINATOR":"Reynolds, Mann and Will","OBJECT_NAME":"YT&bV)>\"Tt","OBJECT_ID":"YGNZR@NBT8","CENTER_NAME":"ZJsf8ga;{R","REF_FRAME":10,"REF_FRAME_EPOCH":"1991-04-14T13:11:01.474Z","TIME_SYSTEM":4,"MEAN_ELEMENT_THEORY":1,"COMMENT":"<{XLqQ5-p5","EPOCH":"2060-03-07T05:34:47.152Z","SEMI_MAJOR_AXIS":35798.95,"MEAN_MOTION":91702.62,"ECCENTRICITY":12980.76,"INCLINATION":56586.69,"RA_OF_ASC_NODE":9553.62,"ARG_OF_PERICENTER":96297.06,"MEAN_ANOMALY":48018.8,"GM":94374.62,"MASS":17978.43,"SOLAR_RAD_AREA":6704.45,"SOLAR_RAD_COEFF":87601.31,"DRAG_AREA":59188.5,"DRAG_COEFF":70839.86,"EPHEMERIS_TYPE":2,"CLASSIFICATION_TYPE":"0Fdn;7'r%Y","NORAD_CAT_ID":3152854960,"ELEMENT_SET_NO":3194962203,"REV_AT_EPOCH":82598.02,"BSTAR":36712.32,"MEAN_MOTION_DOT":90023.42,"MEAN_MOTION_DDOT":60135.86,"COV_REF_FRAME":2,"CX_X":18029.79,"CY_X":78768.86,"CY_Y":59759.88,"CZ_X":40011.14,"CZ_Y":37550.91,"CZ_Z":63954.64,"CX_DOT_X":94022.25,"CX_DOT_Y":48978.06,"CX_DOT_Z":32609.33,"CX_DOT_X_DOT":96139.59,"CY_DOT_X":73952.36,"CY_DOT_Y":58939.86,"CY_DOT_Z":55337.94,"CY_DOT_X_DOT":90113.93,"CY_DOT_Y_DOT":67181.84,"CZ_DOT_X":60582.43,"CZ_DOT_Y":88.27,"CZ_DOT_Z":61247.09,"CZ_DOT_X_DOT":47914.82,"CZ_DOT_Y_DOT":76707.3,"CZ_DOT_Z_DOT":6169.8,"USER_DEFINED_BIP_0044_TYPE":3024481643,"USER_DEFINED_OBJECT_DESIGNATOR":"/i;UX6r,I^","USER_DEFINED_EARTH_MODEL":"TYf%ydV.{4","USER_DEFINED_EPOCH_TIMESTAMP":73480.91,"USER_DEFINED_MICROSECONDS":58627.2},{"CCSDS_OMM_VERS":94291.07,"CREATION_DATE":"2057-02-22T06:07:35.678Z","ORIGINATOR":"Dare Inc","OBJECT_NAME":"R<`_<n>^r.","OBJECT_ID":"WI[)qKsm%s","CENTER_NAME":"+]p_IE.'xo","REF_FRAME":2,"REF_FRAME_EPOCH":"2058-02-05T08:54:21.158Z","TIME_SYSTEM":4,"MEAN_ELEMENT_THEORY":1,"COMMENT":"yR).zw{^jY","EPOCH":"2092-03-06T01:35:47.108Z","SEMI_MAJOR_AXIS":70125.58,"MEAN_MOTION":43484.87,"ECCENTRICITY":60452.92,"INCLINATION":5143.12,"RA_OF_ASC_NODE":98541.66,"ARG_OF_PERICENTER":73985.04,"MEAN_ANOMALY":45482.97,"GM":64091.38,"MASS":75673.31,"SOLAR_RAD_AREA":4499.15,"SOLAR_RAD_COEFF":47901.04,"DRAG_AREA":57159.86,"DRAG_COEFF":84123.21,"EPHEMERIS_TYPE":4,"CLASSIFICATION_TYPE":"WwI\"Fk+rF&","NORAD_CAT_ID":78176203,"ELEMENT_SET_NO":2386804059,"REV_AT_EPOCH":21188.93,"BSTAR":69270.32,"MEAN_MOTION_DOT":46063.24,"MEAN_MOTION_DDOT":33205.93,"COV_REF_FRAME":0,"CX_X":93209.04,"CY_X":42617.97,"CY_Y":86004.6,"CZ_X":57249.7,"CZ_Y":54988.53,"CZ_Z":64091.13,"CX_DOT_X":71711.82,"CX_DOT_Y":44556.23,"CX_DOT_Z":907.63,"CX_DOT_X_DOT":45310.1,"CY_DOT_X":78025.18,"CY_DOT_Y":52824.81,"CY_DOT_Z":65693.25,"CY_DOT_X_DOT":30031.91,"CY_DOT_Y_DOT":31318.39,"CZ_DOT_X":87487.55,"CZ_DOT_Y":67709.72,"CZ_DOT_Z":70950.48,"CZ_DOT_X_DOT":57920.94,"CZ_DOT_Y_DOT":22990.49,"CZ_DOT_Z_DOT":52740.53,"USER_DEFINED_BIP_0044_TYPE":2061336224,"USER_DEFINED_OBJECT_DESIGNATOR":"<0O&bz2BnY","USER_DEFINED_EARTH_MODEL":"[lw^F1/zg'","USER_DEFINED_EPOCH_TIMESTAMP":82197.2,"USER_DEFINED_MICROSECONDS":12388.58},{"CCSDS_OMM_VERS":79942.27,"CREATION_DATE":"2044-08-30T05:59:42.301Z","ORIGINATOR":"Orn - Nitzsche","OBJECT_NAME":"}#O9oNgXuV","OBJECT_ID":",`46DyYw)K","CENTER_NAME":"ubNjHxn1c!","REF_FRAME":2,"REF_FRAME_EPOCH":"2073-07-10T01:39:28.480Z","TIME_SYSTEM":10,"MEAN_ELEMENT_THEORY":0,"COMMENT":"(+$\\nEWD5z","EPOCH":"2011-04-28T13:34:37.449Z","SEMI_MAJOR_AXIS":48226.66,"MEAN_MOTION":94442.05,"ECCENTRICITY":95478.21,"INCLINATION":12817.96,"RA_OF_ASC_NODE":7284.25,"ARG_OF_PERICENTER":68267.44,"MEAN_ANOMALY":18718.84,"GM":53867.12,"MASS":10710.9,"SOLAR_RAD_AREA":11799.39,"SOLAR_RAD_COEFF":7846.63,"DRAG_AREA":55840.35,"DRAG_COEFF":16735.01,"EPHEMERIS_TYPE":0,"CLASSIFICATION_TYPE":"\\E{V`1@<,5","NORAD_CAT_ID":3745909381,"ELEMENT_SET_NO":2595172413,"REV_AT_EPOCH":10790.68,"BSTAR":99400.03,"MEAN_MOTION_DOT":52940.18,"MEAN_MOTION_DDOT":33182.7,"COV_REF_FRAME":0,"CX_X":34241.83,"CY_X":9027.66,"CY_Y":22938.05,"CZ_X":46628.06,"CZ_Y":34656.65,"CZ_Z":52356.31,"CX_DOT_X":53220.81,"CX_DOT_Y":4896.24,"CX_DOT_Z":17150.74,"CX_DOT_X_DOT":75514.39,"CY_DOT_X":75361.34,"CY_DOT_Y":52015.66,"CY_DOT_Z":11953.98,"CY_DOT_X_DOT":67374.62,"CY_DOT_Y_DOT":13313.18,"CZ_DOT_X":67473.05,"CZ_DOT_Y":24704.65,"CZ_DOT_Z":8330.72,"CZ_DOT_X_DOT":3425.42,"CZ_DOT_Y_DOT":48792.37,"CZ_DOT_Z_DOT":70283.61,"USER_DEFINED_BIP_0044_TYPE":1221522071,"USER_DEFINED_OBJECT_DESIGNATOR":"];*S.Tm}v1","USER_DEFINED_EARTH_MODEL":"\\LOCysRt9S","USER_DEFINED_EPOCH_TIMESTAMP":95443.21,"USER_DEFINED_MICROSECONDS":78543.71}]}